*******************************************************************************
Ephemeris / WWW_USER Tue Mar 27 22:18:40 2018 Pasadena, USA      / Horizons    
*******************************************************************************
Target body name: Pluto Barycenter (9)            {source: de433}
Center body name: Solar System Barycenter (0)     {source: DE431mx}
Center-site name: BODY CENTER
*******************************************************************************
Start time      : A.D. 2018-Feb-08 00:00:00.0000 TDB
Stop  time      : A.D. 2028-Feb-08 00:00:00.0000 TDB
Step-size       : 7200 minutes
*******************************************************************************
Center geodetic : 0.00000000,0.00000000,0.0000000 {E-lon(deg),Lat(deg),Alt(km)}
Center cylindric: 0.00000000,0.00000000,0.0000000 {E-lon(deg),Dxy(km),Dz(km)}
Center radii    : (undefined)                                                  
Output units    : AU-D                                                         
Output type     : GEOMETRIC cartesian states
Output format   : 2 (position and velocity)
Reference frame : ICRF/J2000.0                                                 
Coordinate systm: Ecliptic and Mean Equinox of Reference Epoch                 
*******************************************************************************
JDTDB
   X     Y     Z
   VX    VY    VZ
*******************************************************************************
$$SOE
2460677.500000000 = A.D. 2025-Jan-02 00:00:00.0000 TDB 
   1.822586282664943E+01 -3.001198560892383E+01 -2.060541938669390E+00
   2.767309212753593E-03  9.359176838859331E-04 -9.006180363685452E-04
2460682.500000000 = A.D. 2025-Jan-07 00:00:00.0000 TDB 
   1.823969782122093E+01 -3.000730346640046E+01 -2.065044853350289E+00
   2.766688567670425E-03  9.369392489685577E-04 -9.005478138723102E-04
2460687.500000000 = A.D. 2025-Jan-12 00:00:00.0000 TDB 
   1.825352971184462E+01 -3.000261621719905E+01 -2.069547416587008E+00
   2.766067633681713E-03  9.379603551019778E-04 -9.004774587134185E-04
2460692.500000000 = A.D. 2025-Jan-17 00:00:00.0000 TDB 
   1.826735849707679E+01 -2.999792386361434E+01 -2.074049627716476E+00
   2.765446411118707E-03  9.389810022971453E-04 -9.004069709876747E-04
2460697.500000000 = A.D. 2025-Jan-22 00:00:00.0000 TDB 
   1.828118417547540E+01 -2.999322640794096E+01 -2.078551486076098E+00
   2.764824900312404E-03  9.400011905656016E-04 -9.003363507908331E-04
2460702.500000000 = A.D. 2025-Jan-27 00:00:00.0000 TDB 
   1.829500674560006E+01 -2.998852385247353E+01 -2.083052991003757E+00
   2.764203101594286E-03  9.410209199184008E-04 -9.002655982185575E-04
2460707.500000000 = A.D. 2025-Feb-01 00:00:00.0000 TDB 
   1.830882620601204E+01 -2.998381619950662E+01 -2.087554141837818E+00
   2.763581015295522E-03  9.420401903666867E-04 -9.001947133665321E-04
2460712.500000000 = A.D. 2025-Feb-06 00:00:00.0000 TDB 
   1.832264255527427E+01 -2.997910345133469E+01 -2.092054937917117E+00
   2.762958641746957E-03  9.430590019218105E-04 -9.001236963304519E-04
2460717.500000000 = A.D. 2025-Feb-11 00:00:00.0000 TDB 
   1.833645579195131E+01 -2.997438561025220E+01 -2.096555378580975E+00
   2.762335981279112E-03  9.440773545953309E-04 -9.000525472060247E-04
2460722.500000000 = A.D. 2025-Feb-16 00:00:00.0000 TDB 
   1.835026591460941E+01 -2.996966267855353E+01 -2.101055463169192E+00
   2.761713034222362E-03  9.450952483988704E-04 -8.999812660889291E-04
2460727.500000000 = A.D. 2025-Feb-21 00:00:00.0000 TDB 
   1.836407292181644E+01 -2.996493465853298E+01 -2.105555191022036E+00
   2.761089800907046E-03  9.461126833441120E-04 -8.999098530745987E-04
2460732.500000000 = A.D. 2025-Feb-26 00:00:00.0000 TDB 
   1.837787681214193E+01 -2.996020155248483E+01 -2.110054561480268E+00
   2.760466281663015E-03  9.471296594430130E-04 -8.998383082586738E-04
2460737.500000000 = A.D. 2025-Mar-03 00:00:00.0000 TDB 
   1.839167758415707E+01 -2.995546336270327E+01 -2.114553573885112E+00
   2.759842476820048E-03  9.481461767075118E-04 -8.997666317367656E-04
2460742.500000000 = A.D. 2025-Mar-08 00:00:00.0000 TDB 
   1.840547523643468E+01 -2.995072009148246E+01 -2.119052227578285E+00
   2.759218386707668E-03  9.491622351497309E-04 -8.996948236043922E-04
2460747.500000000 = A.D. 2025-Mar-13 00:00:00.0000 TDB 
   1.841926976754925E+01 -2.994597174111646E+01 -2.123550521901966E+00
   2.758594011655127E-03  9.501778347819808E-04 -8.996228839569790E-04
2460752.500000000 = A.D. 2025-Mar-18 00:00:00.0000 TDB 
   1.843306117607688E+01 -2.994121831389930E+01 -2.128048456198819E+00
   2.757969351991418E-03  9.511929756167554E-04 -8.995508128898581E-04
2460757.500000000 = A.D. 2025-Mar-23 00:00:00.0000 TDB 
   1.844684946059536E+01 -2.993645981212493E+01 -2.132546029811990E+00
   2.757344408045532E-03  9.522076576669424E-04 -8.994786104986317E-04
2460762.500000000 = A.D. 2025-Mar-28 00:00:00.0000 TDB 
   1.846063461968408E+01 -2.993169623808725E+01 -2.137043242085092E+00
   2.756719180145964E-03  9.532218809456881E-04 -8.994062768787222E-04
2460767.500000000 = A.D. 2025-Apr-02 00:00:00.0000 TDB 
   1.847441665192411E+01 -2.992692759408007E+01 -2.141540092362221E+00
   2.756093668621016E-03  9.542356454661803E-04 -8.993338121254858E-04
2460772.500000000 = A.D. 2025-Apr-07 00:00:00.0000 TDB 
   1.848819555589813E+01 -2.992215388239716E+01 -2.146036579987950E+00
   2.755467873798925E-03  9.552489512417974E-04 -8.992612163342305E-04
2460777.500000000 = A.D. 2025-Apr-12 00:00:00.0000 TDB 
   1.850197133019048E+01 -2.991737510533221E+01 -2.150532704307326E+00
   2.754841796007854E-03  9.562617982861119E-04 -8.991884896002163E-04
2460782.500000000 = A.D. 2025-Apr-17 00:00:00.0000 TDB 
   1.851574397338714E+01 -2.991259126517883E+01 -2.155028464665872E+00
   2.754215435575896E-03  9.572741866128886E-04 -8.991156320186545E-04
2460787.500000000 = A.D. 2025-Apr-22 00:00:00.0000 TDB 
   1.852951348407572E+01 -2.990780236423059E+01 -2.159523860409591E+00
   2.753588792830789E-03  9.582861162363066E-04 -8.990426436848149E-04
2460792.500000000 = A.D. 2025-Apr-27 00:00:00.0000 TDB 
   1.854327986084547E+01 -2.990300840478095E+01 -2.164018890884958E+00
   2.752961868099756E-03  9.592975871706882E-04 -8.989695246941644E-04
2460797.500000000 = A.D. 2025-May-02 00:00:00.0000 TDB 
   1.855704310228729E+01 -2.989820938912334E+01 -2.168513555438930E+00
   2.752334661710500E-03  9.603085994301313E-04 -8.988962751418028E-04
2460802.500000000 = A.D. 2025-May-07 00:00:00.0000 TDB 
   1.857080320699369E+01 -2.989340531955108E+01 -2.173007853418931E+00
   2.751707173990550E-03  9.613191530290323E-04 -8.988228951228571E-04
2460807.500000000 = A.D. 2025-May-12 00:00:00.0000 TDB 
   1.858456017355885E+01 -2.988859619835746E+01 -2.177501784172871E+00
   2.751079405267254E-03  9.623292479820332E-04 -8.987493847325183E-04
2460812.500000000 = A.D. 2025-May-17 00:00:00.0000 TDB 
   1.859831400057857E+01 -2.988378202783565E+01 -2.181995347049130E+00
   2.750451355867779E-03  9.633388843040187E-04 -8.986757440660407E-04
2460817.500000000 = A.D. 2025-May-22 00:00:00.0000 TDB 
   1.861206468665028E+01 -2.987896281027878E+01 -2.186488541396567E+00
   2.749823026119093E-03  9.643480620100622E-04 -8.986019732186953E-04
2460822.500000000 = A.D. 2025-May-27 00:00:00.0000 TDB 
   1.862581223037306E+01 -2.987413854797989E+01 -2.190981366564508E+00
   2.749194416348004E-03  9.653567811142356E-04 -8.985280722852921E-04
2460827.500000000 = A.D. 2025-Jun-01 00:00:00.0000 TDB 
   1.863955663034760E+01 -2.986930924323194E+01 -2.195473821902768E+00
   2.748565526881393E-03  9.663650416313853E-04 -8.984540413609964E-04
2460832.500000000 = A.D. 2025-Jun-06 00:00:00.0000 TDB 
   1.865329788517626E+01 -2.986447489832785E+01 -2.199965906761626E+00
   2.747936358045830E-03  9.673728435768013E-04 -8.983798805409645E-04
2460837.500000000 = A.D. 2025-Jun-11 00:00:00.0000 TDB 
   1.866703599346299E+01 -2.985963551556044E+01 -2.204457620491843E+00
   2.747306910167654E-03  9.683801869657040E-04 -8.983055899202829E-04
2460842.500000000 = A.D. 2025-Jun-16 00:00:00.0000 TDB 
   1.868077095381341E+01 -2.985479109722244E+01 -2.208948962444651E+00
   2.746677183572978E-03  9.693870718132438E-04 -8.982311695939670E-04
2460847.500000000 = A.D. 2025-Jun-21 00:00:00.0000 TDB 
   1.869450276483474E+01 -2.984994164560652E+01 -2.213439931971764E+00
   2.746047178587680E-03  9.703934981345040E-04 -8.981566196569627E-04
2460852.500000000 = A.D. 2025-Jun-26 00:00:00.0000 TDB 
   1.870823142513584E+01 -2.984508716300527E+01 -2.217930528425363E+00
   2.745416895537694E-03  9.713994659447597E-04 -8.980819402043071E-04
2460857.500000000 = A.D. 2025-Jul-01 00:00:00.0000 TDB 
   1.872195693332722E+01 -2.984022765171122E+01 -2.222420751158107E+00
   2.744786334748435E-03  9.724049752598201E-04 -8.980071313310371E-04
2460862.500000000 = A.D. 2025-Jul-06 00:00:00.0000 TDB 
   1.873567928802097E+01 -2.983536311401680E+01 -2.226910599523131E+00
   2.744155496545161E-03  9.734100260952623E-04 -8.979321931320375E-04
2460867.500000000 = A.D. 2025-Jul-11 00:00:00.0000 TDB 
   1.874939848783085E+01 -2.983049355221438E+01 -2.231400072874041E+00
   2.743524381252939E-03  9.744146184669005E-04 -8.978571257021901E-04
2460872.500000000 = A.D. 2025-Jul-16 00:00:00.0000 TDB 
   1.876311453137223E+01 -2.982561896859622E+01 -2.235889170564926E+00
   2.742892989196586E-03  9.754187523908092E-04 -8.977819291363659E-04
2460877.500000000 = A.D. 2025-Jul-21 00:00:00.0000 TDB 
   1.877682741726209E+01 -2.982073936545452E+01 -2.240377891950337E+00
   2.742261320700667E-03  9.764224278833225E-04 -8.977066035294241E-04
2460882.500000000 = A.D. 2025-Jul-26 00:00:00.0000 TDB 
   1.879053714411904E+01 -2.981585474508141E+01 -2.244866236385310E+00
   2.741629376089470E-03  9.774256449609172E-04 -8.976311489761593E-04
